#aV2006  6  8  0  0   .00000000      96 DD+AD WGS84 FIT  NGA
## 1378 345600.00000000   900.00000000 53894  .0000000000000
+   29     1  2  3  4  5  6  7  8  9 10 11 13 14 15 16 17 18
+         19 20 21 22 23 24 25 26 27 28 29 30  0  0  0  0  0
+          0  0  0  0  0  0  0  0  0  0  0  0  0  0  0  0  0
+          0  0  0  0  0  0  0  0  0  0  0  0  0  0  0  0  0
+          0  0  0  0  0  0  0  0  0  0  0  0  0  0  0  0  0
++         0  0  0  0  0  0  0  0  0  0  0  0  0  0  0  0  0
++         0  0  0  0  0  0  0  0  0  0  0  0  0  0  0  0  0
++         0  0  0  0  0  0  0  0  0  0  0  0  0  0  0  0  0
++         0  0  0  0  0  0  0  0  0  0  0  0  0  0  0  0  0
++         0  0  0  0  0  0  0  0  0  0  0  0  0  0  0  0  0
%c cc cc ccc ccc cccc cccc cccc cccc ccccc ccccc ccccc ccccc
%c cc cc ccc ccc cccc cccc cccc cccc ccccc ccccc ccccc ccccc
%f  0.0000000  0.000000000  0.00000000000  0.000000000000000
%f  0.0000000  0.000000000  0.00000000000  0.000000000000000
%i    0    0    0    0      0      0      0      0         0
%i    0    0    0    0      0      0      0      0         0
/*      NGA, ST. LOUIS,MO.                                  
/*   EPHEMERIS COMPUTED FROM  3 DAYS OF DATA                
/* CCCCCCCCCCCCCCCCCCCCCCCCCCCCCCCCCCCCCCCCCCCCCCCCCCCCCCCCC
/* CCCCCCCCCCCCCCCCCCCCCCCCCCCCCCCCCCCCCCCCCCCCCCCCCCCCCCCCC
*  2006  6  8  1 15   .00000000                                                 
P  1  14969.823420 -18221.706250 -11977.643976     58.016105                    
V  1  -3628.342074  15158.782319 -27205.481204       .025226                    
P  2 -20674.218912  12408.580832  10639.601137      3.169795                    
V  2 -14294.298163    159.211121 -27509.476047       .030372                    
P  3  11427.291642 -22145.314359   8568.841580    105.011566                    
V  3   1375.299795  11820.413292  28483.574743       .030711                    
P  4 -26143.467368   5653.068830    475.799161    248.738124                    
V  4  -1199.318753  -2675.534552 -31278.813649       .085589                    
P  5   9772.835628  21529.562358 -12464.514032     98.019615                    
V  5 -13219.594557  -8546.774092 -25368.021932       .455581                    
P  6   9711.684966  16439.763796  18631.323859    556.227989                    
V  6  -8058.607190  22014.872225 -15460.621543       .136313                    
P  7  16791.466087  -6646.837103  19857.962067    540.717512                    
V  7  -4760.160409  24100.943130  12178.042649       .011380                    
P  8 -25687.038262   -526.421242   7378.707576    -68.206893                    
V  8   8953.810168  -3602.592693  29927.013881      -.012010                    
P  9   -641.595416  15895.156693 -21786.483532     23.420370                    
V  9 -25695.880962   6135.469642   5649.247789       .014335                    
P 10  -7636.320609  13434.023028  21462.473177     84.675716                    
V 10 -18581.431688 -20274.983468   6351.829810       .006423                    
P 11  -2359.756606 -16670.902196 -20583.971288    332.049603                    
V 11  24856.546306  -8646.554030   4419.822398       .023617                    
P 13  -7887.112609 -16164.051263  19474.826275     67.761425                    
V 13   8906.854946 -23190.648480 -15511.418280       .028995                    
P 14  15790.325013  -3537.386718 -20985.447703    -12.427887                    
V 14  -7744.484146  25600.686667 -10163.102634       .007721                    
P 15  25797.128379   1209.599295   6911.103986    625.184168                    
V 15  -8441.638552   3719.788693  29777.477046       .060910                    
P 16  12232.967918  -9148.940374  21819.805816     48.049831                    
V 16  18303.493101  20507.639263  -1561.240249       .025781                    
P 17 -16104.301664   2144.842468 -21000.884945     97.407259                    
V 17   7315.772689 -25662.539619  -8328.236935       .018462                    
P 18  19326.916754  17799.491571  -4795.994289   -238.489056                    
V 18   1965.457312   6397.964660  30707.365882      -.014508                    
P 19   7275.398632 -25295.241238  -3237.559771     -6.623609                    
V 19   4260.667585  -2919.277198  31371.994270       .021276                    
P 20 -11275.408964 -22076.130152  -9674.393320    -25.720979                    
V 20  10174.925775   7118.560711 -28350.507552       .005227                    
P 21  21396.562149   6876.829966  14621.783668     34.071697                    
V 21 -17620.496041   5341.409564  22837.441237       .025036                    
P 22  20074.577963   6622.859680 -15937.485667    104.276869                    
V 22  11467.869330  17149.479871  21354.274410       .041357                    
P 23   -622.314515 -23899.240197  11299.709522    139.997241                    
V 23   6609.850704 -13163.163273 -27402.503340      -.006552                    
P 24 -25001.192554  -2105.490216  -8884.913248     11.731345                    
V 24  10966.899155  -4309.089665 -28813.454644       .028345                    
P 25  23528.405637 -11480.373371   5293.583819    230.817361                    
V 25   6749.353196    740.601628 -30579.827539       .790110                    
P 26  -7965.514034  24988.340464   -963.291719   -139.782033                    
V 26  -2489.665164    -57.331133  32764.986091      -.120772                    
P 27 -20365.282341  -6321.698853  16640.702990     52.395172                    
V 27  18703.663944  -6922.642891  20710.789462       .017461                    
P 28 -20925.129795 -10092.656871 -12892.070418     25.732402                    
V 28  -9450.425669 -13949.263049  25342.935265      -.005592                    
P 29  -9957.615019  24218.077145   3643.046526    616.575020                    
V 29   -798.894311  -4807.990809  32068.738949       .049896                    
P 30  17722.985994  19817.636558  -1729.447874       .179287                    
V 30  -3600.533261    931.181380 -31205.158971       .007830                    
EOF
